NOAA 1 [-]              
1 04793U 70106A   19020.96257654 -.00000047  00000-0 -14839-4 0  9995
2 04793 101.7255  91.3511 0031885 213.0600 209.1731 12.53988327201726
NOAA 2 (ITOS-D) [-]     
1 06235U 72082A   19020.88405852 -.00000051  00000-0 -35195-4 0  9992
2 06235 101.7738 348.5392 0003931 305.6163 109.9317 12.53110920116203
NOAA 3 [-]              
1 06920U 73086A   19020.90737451 -.00000061  00000-0 -12024-3 0  9990
2 06920 102.0300 351.6046 0006631  68.9869 352.1902 12.40345267 46615
NOAA 4 [-]              
1 07529U 74089A   19020.87636953 -.00000041  00000-0  22375-4 0  9999
2 07529 101.7314 350.2396 0008893 335.1979  78.9089 12.53125238 20774
NOAA 5 [-]              
1 09057U 76077A   19020.90468453 -.00000047  00000-0 -21467-4 0  9996
2 09057 101.9111 355.7843 0009776 284.4691 130.3045 12.37756796919878
TIROS N [P]             
1 11060U 78096A   19020.81039828 -.00000003  00000-0  20172-4 0  9999
2 11060  98.8134  79.3987 0011617 113.9537 246.2856 14.18221704295561
NOAA 6 [P]              
1 11416U 79057A   19020.95118783  .00000019  00000-0  23017-4 0  9992
2 11416  98.6280  15.4214 0009844 332.8661  27.2007 14.33514139 63358
NOAA 7 [-]              
1 12553U 81059A   19020.96182587 -.00000048  00000-0 -67459-6 0  9998
2 12553  99.0956  24.8608 0012203  47.4787   4.2008 14.17252781941656
NOAA 8 [-]              
1 13923U 83022A   19020.92599019 -.00000020  00000-0  95420-5 0  9997
2 13923  98.5677   8.7572 0014158 251.1368 108.8279 14.28663287864848
NOAA 9 [P]              
1 15427U 84123A   19020.91643686 -.00000012  00000-0  16298-4 0  9996
2 15427  98.8746 330.2519 0015852  97.8783 303.4538 14.16057375760614
NOAA 10 [-]             
1 16969U 86073A   19020.91402347 -.00000006  00000-0  14777-4 0  9994
2 16969  98.4727  21.7869 0012307   8.5082  48.4849 14.28061740683343
NOAA 11 [-]             
1 19531U 88089A   19020.76144497 -.00000010  00000-0  16091-4 0  9999
2 19531  98.4691  62.6807 0011649 158.4445 201.7223 14.15236164564903
NOAA 12 [-]             
1 21263U 91032A   19020.94276530 -.00000016  00000-0  11386-4 0  9998
2 21263  98.5250  40.4038 0014061  22.7398 337.4402 14.25884436439517
NOAA 13 [-]             
1 22739U 93050A   19020.93765419  .00000015  00000-0  30320-4 0  9994
2 22739  98.4871  51.5837 0008638 311.2405  48.8023 14.12721706311474
NOAA 14 [-]             
1 23455U 94089A   19020.91944171 -.00000023  00000-0  10389-4 0  9998
2 23455  98.6190  87.6296 0008416 293.2385  66.7902 14.14125351240950
NOAA 15 [B]             
1 25338U 98030A   19020.93502382  .00000019  00000-0  26858-4 0  9998
2 25338  98.7582  42.3801 0009768 319.3690  40.6759 14.25892026 75799
NOAA 16 [-]             
1 26536U 00055A   19020.90429628 -.00000001  00000-0  22814-4 0  9997
2 26536  98.7936  95.5939 0011551 106.6036 253.6406 14.13221324241704
NOAA 17 [-]             
1 27453U 02032A   19020.90705504 -.00000029  00000-0  58623-5 0  9991
2 27453  98.5182 335.5285 0010735 299.1329  60.8776 14.25030397861742
NOAA 18 [B]             
1 28654U 05018A   19020.94316914  .00000041  00000-0  47089-4 0  9995
2 28654  99.1186  65.5246 0013644 233.5636 126.4278 14.12399175704424
NOAA 19 [+]             
1 33591U 09005A   19020.91807669  .00000014  00000-0  32658-4 0  9996
2 33591  99.1672   8.5400 0014905  76.6112 283.6720 14.12330056512647
SUOMI NPP [+]           
1 37849U 11061A   19020.91874459 -.00000011  00000-0  15425-4 0  9993
2 37849  98.7229 321.2248 0000643  61.4207 340.2258 14.19554846374774
NOAA 20 [+]             
1 43013U 17073A   19020.87517232 -.00000007  00000-0  17489-4 0  9997
2 43013  98.7485 321.1965 0001112  63.5115 296.6175 14.19537379 60794
